$$SOE
2460154.500000000, A.D. 2023-Jul-29 00:00:00.0000, -2.624422138356059E+08, 2.189555327396480E+08, 3.660008262402199E+07,
2460161.500000000, A.D. 2023-Aug-05 00:00:00.0000, -2.716141783944542E+08, 2.106292557079593E+08, 3.736574909789111E+07,
2460168.500000000, A.D. 2023-Aug-12 00:00:00.0000, -2.804671888569723E+08, 2.020555443325800E+08, 3.808753071361859E+07,
2460175.500000000, A.D. 2023-Aug-19 00:00:00.0000, -2.889965662858713E+08, 1.932485853277526E+08, 3.876535614455211E+07,
2460182.500000000, A.D. 2023-Aug-26 00:00:00.0000, -2.971982873719557E+08, 1.842224319217420E+08, 3.939922366250464E+07,
2460189.500000000, A.D. 2023-Sep-02 00:00:00.0000, -3.050689548408133E+08, 1.749909756150713E+08, 3.998919689445205E+07,
2460196.500000000, A.D. 2023-Sep-09 00:00:00.0000, -3.126057674518055E+08, 1.655679210431289E+08, 4.053540062684218E+07,
2460203.500000000, A.D. 2023-Sep-16 00:00:00.0000, -3.198064896832032E+08, 1.559667637315192E+08, 4.103801666199385E+07,
2460210.500000000, A.D. 2023-Sep-23 00:00:00.0000, -3.266694209180684E+08, 1.462007708644628E+08, 4.149727973256910E+07,
2460217.500000000, A.D. 2023-Sep-30 00:00:00.0000, -3.331933646719798E+08, 1.362829660812262E+08, 4.191347361967620E+07,
2460224.500000000, A.D. 2023-Oct-07 00:00:00.0000, -3.393776003925336E+08, 1.262261175773629E+08, 4.228692766021626E+07,
2460231.500000000, A.D. 2023-Oct-14 00:00:00.0000, -3.452218569415314E+08, 1.160427260188215E+08, 4.261801328884139E+07,
2460238.500000000, A.D. 2023-Oct-21 00:00:00.0000, -3.507262846497018E+08, 1.057450136929301E+08, 4.290714045741622E+07,
2460245.500000000, A.D. 2023-Oct-28 00:00:00.0000, -3.558914274637768E+08, 9.534491697407690E+07, 4.315475425232831E+07,
2460252.500000000, A.D. 2023-Nov-04 00:00:00.0000, -3.607181965193800E+08, 8.485408115757136E+07, 4.336133176511807E+07,
2460259.500000000, A.D. 2023-Nov-11 00:00:00.0000, -3.652078450270680E+08, 7.428385689606045E+07, 4.352737915343954E+07,
2460266.500000000, A.D. 2023-Nov-18 00:00:00.0000, -3.693619442971759E+08, 6.364529801499911E+07, 4.365342886732146E+07,
2460273.500000000, A.D. 2023-Nov-25 00:00:00.0000, -3.731823608609602E+08, 5.294916057711257E+07, 4.374003703470665E+07,
2460280.500000000, A.D. 2023-Dec-02 00:00:00.0000, -3.766712346782898E+08, 4.220590304041062E+07, 4.378778100045748E+07,
2460287.500000000, A.D. 2023-Dec-09 00:00:00.0000, -3.798309583619021E+08, 3.142568731608091E+07, 4.379725700361422E+07,
2460294.500000000, A.D. 2023-Dec-16 00:00:00.0000, -3.826641571285180E+08, 2.061838061405380E+07, 4.376907796337682E+07,
2460301.500000000, A.D. 2023-Dec-23 00:00:00.0000, -3.851736691161831E+08, 9.793558648655888E+06, 4.370387139281088E+07,
2460308.500000000, A.D. 2023-Dec-30 00:00:00.0000, -3.873625273866441E+08, -1.039488853412477E+06, 4.360227764266239E+07,
2460315.500000000, A.D. 2024-Jan-06 00:00:00.0000, -3.892339453588874E+08, -1.187175280438608E+07, 4.346494843813944E+07,
2460322.500000000, A.D. 2024-Jan-13 00:00:00.0000, -3.907913024730096E+08, -2.269450146624373E+07, 4.329254526350726E+07,
2460329.500000000, A.D. 2024-Jan-20 00:00:00.0000, -3.920381288284718E+08, -3.349927622141939E+07, 4.308573772800012E+07,
2460336.500000000, A.D. 2024-Jan-27 00:00:00.0000, -3.929780907916933E+08, -4.427788583010456E+07, 4.284520214613044E+07,
2460343.500000000, A.D. 2024-Feb-03 00:00:00.0000, -3.936149779705386E+08, -5.502240019347009E+07, 4.257162028841181E+07,
2460350.500000000, A.D. 2024-Feb-10 00:00:00.0000, -3.939526912465553E+08, -6.572514397423419E+07, 4.226567824772020E+07,
2460357.500000000, A.D. 2024-Feb-17 00:00:00.0000, -3.939952316899313E+08, -7.637869011926535E+07, 4.192806540331970E+07,
2460364.500000000, A.D. 2024-Feb-24 00:00:00.0000, -3.937466902819203E+08, -8.697585331725129E+07, 4.155947347429990E+07,
2460371.500000000, A.D. 2024-Mar-02 00:00:00.0000, -3.932112383756322E+08, -9.750968346757433E+07, 4.116059565101544E+07,
2460378.500000000, A.D. 2024-Mar-09 00:00:00.0000, -3.923931187173982E+08, -1.079734592623508E+08, 4.073212578087735E+07,
2460385.500000000, A.D. 2024-Mar-16 00:00:00.0000, -3.912966365953489E+08, -1.183606817187358E+08, 4.027475758286803E+07,
2460392.500000000, A.D. 2024-Mar-23 00:00:00.0000, -3.899261511812292E+08, -1.286650665822375E+08, 3.978918398558912E+07,
2460399.500000000, A.D. 2024-Mar-30 00:00:00.0000, -3.882860692696787E+08, -1.388805356541124E+08, 3.927609678699979E+07,
2460406.500000000, A.D. 2024-Apr-06 00:00:00.0000, -3.863808411246700E+08, -1.490012104341249E+08, 3.873618633230454E+07,
2460413.500000000, A.D. 2024-Apr-13 00:00:00.0000, -3.842149548499237E+08, -1.590214072616400E+08, 3.817014094828025E+07,
2460420.500000000, A.D. 2024-Apr-20 00:00:00.0000, -3.817929302018225E+08, -1.689356312934312E+08, 3.757864643578750E+07,
2460427.500000000, A.D. 2024-Apr-27 00:00:00.0000, -3.791193133276766E+08, -1.787385698936748E+08, 3.696238570939770E+07,
2460434.500000000, A.D. 2024-May-04 00:00:00.0000, -3.761986723106452E+08, -1.884250861537046E+08, 3.632203851480469E+07,
2460441.500000000, A.D. 2024-May-11 00:00:00.0000, -3.730355932563660E+08, -1.979902126555725E+08, 3.565828119081749E+07,
2460448.500000000, A.D. 2024-May-18 00:00:00.0000, -3.696346768149856E+08, -2.074291454668241E+08, 3.497178646760260E+07,
2460455.500000000, A.D. 2024-May-25 00:00:00.0000, -3.660005350904531E+08, -2.167372383799354E+08, 3.426322329586694E+07,
2460462.500000000, A.D. 2024-Jun-01 00:00:00.0000, -3.621377888545430E+08, -2.259099974582897E+08, 3.353325669437658E+07,
2460469.500000000, A.D. 2024-Jun-08 00:00:00.0000, -3.580510647974185E+08, -2.349430759146910E+08, 3.278254758898474E+07,
2460476.500000000, A.D. 2024-Jun-15 00:00:00.0000, -3.537449923942141E+08, -2.438322687791229E+08, 3.201175264881712E+07,
2460483.500000000, A.D. 2024-Jun-22 00:00:00.0000, -3.492242013723105E+08, -2.525735061813449E+08, 3.122152430565999E+07,
2460490.500000000, A.D. 2024-Jun-29 00:00:00.0000, -3.444933218811949E+08, -2.611628470698972E+08, 3.041251100023435E+07,
2460497.500000000, A.D. 2024-Jul-06 00:00:00.0000, -3.395569847028234E+08, -2.695964758401051E+08, 2.958535720901395E+07,
2460504.500000000, A.D. 2024-Jul-13 00:00:00.0000, -3.344198195383759E+08, -2.778706990471411E+08, 2.874070330212101E+07,
2460511.500000000, A.D. 2024-Jul-20 00:00:00.0000, -3.290864533418723E+08, -2.859819410534649E+08, 2.787918550676695E+07,
2460518.500000000, A.D. 2024-Jul-27 00:00:00.0000, -3.235615093411472E+08, -2.939267395678635E+08, 2.700143595628279E+07,
2460525.500000000, A.D. 2024-Aug-03 00:00:00.0000, -3.178496064589040E+08, -3.017017414497280E+08, 2.610808276737386E+07,
2460532.500000000, A.D. 2024-Aug-10 00:00:00.0000, -3.119553589558100E+08, -3.093036987821863E+08, 2.519975012853894E+07,
2460539.500000000, A.D. 2024-Aug-17 00:00:00.0000, -3.058833762378392E+08, -3.167294651909298E+08, 2.427705839579718E+07,
2460546.500000000, A.D. 2024-Aug-24 00:00:00.0000, -2.996382627905537E+08, -3.239759924284620E+08, 2.334062419012509E+07,
2460553.500000000, A.D. 2024-Aug-31 00:00:00.0000, -2.932246181156906E+08, -3.310403272816729E+08, 2.239106047974713E+07,
2460560.500000000, A.D. 2024-Sep-07 00:00:00.0000, -2.866470362956166E+08, -3.379196086717759E+08, 2.142897662284090E+07,
2460567.500000000, A.D. 2024-Sep-14 00:00:00.0000, -2.799101050909010E+08, -3.446110639453307E+08, 2.045497844295464E+07,
2460574.500000000, A.D. 2024-Sep-21 00:00:00.0000, -2.730184065892389E+08, -3.511120039385825E+08, 1.946966855563655E+07,
2460581.500000000, A.D. 2024-Sep-28 00:00:00.0000, -2.659765198826582E+08, -3.574198200401050E+08, 1.847364672600450E+07,
2460588.500000000, A.D. 2024-Oct-05 00:00:00.0000, -2.587890220957143E+08, -3.635319832506119E+08, 1.746750992000365E+07,
2460595.500000000, A.D. 2024-Oct-12 00:00:00.0000, -2.514604881208086E+08, -3.694460422602840E+08, 1.645185232555273E+07,
2460602.500000000, A.D. 2024-Oct-19 00:00:00.0000, -2.439954908079508E+08, -3.751596208127842E+08, 1.542726548168202E+07,
2460609.500000000, A.D. 2024-Oct-26 00:00:00.0000, -2.363986016373148E+08, -3.806704151542156E+08, 1.439433845267500E+07,
2460616.500000000, A.D. 2024-Nov-02 00:00:00.0000, -2.286743916125023E+08, -3.859761917119970E+08, 1.335365801093966E+07,
2460623.500000000, A.D. 2024-Nov-09 00:00:00.0000, -2.208274322730106E+08, -3.910747849801519E+08, 1.230580882093586E+07,
2460630.500000000, A.D. 2024-Nov-16 00:00:00.0000, -2.128622967955870E+08, -3.959640956085104E+08, 1.125137362142608E+07,
2460637.500000000, A.D. 2024-Nov-23 00:00:00.0000, -2.047835611336461E+08, -4.006420887436212E+08, 1.019093339738563E+07,
2460644.500000000, A.D. 2024-Nov-30 00:00:00.0000, -1.965958049828519E+08, -4.051067926619601E+08, 9.125067518746734E+06,
2460651.500000000, A.D. 2024-Dec-07 00:00:00.0000, -1.883036121500922E+08, -4.093562972729059E+08, 8.054353841676950E+06,
2460658.500000000, A.D. 2024-Dec-14 00:00:00.0000, -1.799115710113248E+08, -4.133887512654676E+08, 6.979368935405821E+06,
2460665.500000000, A.D. 2024-Dec-21 00:00:00.0000, -1.714242773734036E+08, -4.172023591373150E+08, 5.900688545663416E+06,
2460672.500000000, A.D. 2024-Dec-28 00:00:00.0000, -1.628463377638978E+08, -4.207953810724825E+08, 4.818887871121734E+06,
2460679.500000000, A.D. 2025-Jan-04 00:00:00.0000, -1.541823705493679E+08, -4.241661332921636E+08, 3.734541608786404E+06,
2460686.500000000, A.D. 2025-Jan-11 00:00:00.0000, -1.454370067018421E+08, -4.273129872189003E+08, 2.648224071140885E+06,
2460693.500000000, A.D. 2025-Jan-18 00:00:00.0000, -1.366148911287352E+08, -4.302343683723156E+08, 1.560509384157389E+06,
2460700.500000000, A.D. 2025-Jan-25 00:00:00.0000, -1.277206843207591E+08, -4.329287554701651E+08, 4.719717051135302E+05,
2460707.500000000, A.D. 2025-Feb-01 00:00:00.0000, -1.187590641260961E+08, -4.353946797643740E+08, -6.168145596175790E+05,
2460714.500000000, A.D. 2025-Feb-08 00:00:00.0000, -1.097347275900908E+08, -4.376307245927029E+08, -1.705274540583968E+06,
2460721.500000000, A.D. 2025-Feb-15 00:00:00.0000, -1.006523928296547E+08, -4.396355251672567E+08, -2.792832699371368E+06,
$$EOE